<?xml version="1.0"?>
<gpx version="1.1"><trk><trkseg>
  <trkpt lat="40.4290" lon="-79.9959"><ele>234</ele><time>2026-06-23T14:00:00Z</time></trkpt>
  <trkpt lat="40.4301" lon="-79.9962"><ele>235</ele><time>2026-06-23T14:00:15Z</time></trkpt>
  <trkpt lat="40.4313" lon="-79.9965"><ele>237</ele><time>2026-06-23T14:00:30Z</time></trkpt>
  <trkpt lat="40.4325" lon="-79.9968"><ele>236</ele><time>2026-06-23T14:00:45Z</time></trkpt>
  <trkpt lat="40.4337" lon="-79.9971"><ele>239</ele><time>2026-06-23T14:01:00Z</time></trkpt>
</trkseg></trk></gpx>
