<?xml version="1.0"?>
<gpx version="1.1"><trk><trkseg>
  <trkpt lat="40.480000" lon="-79.760000"><ele>240</ele><time>2026-07-22T12:00:00Z</time></trkpt>
  <trkpt lat="40.480292" lon="-79.760000"><ele>242</ele><time>2026-07-22T12:00:05Z</time></trkpt>
  <trkpt lat="40.480584" lon="-79.760000"><ele>244</ele><time>2026-07-22T12:00:10Z</time></trkpt>
  <trkpt lat="40.480876" lon="-79.760000"><ele>246</ele><time>2026-07-22T12:00:15Z</time></trkpt>
  <trkpt lat="40.481168" lon="-79.760000"><ele>248</ele><time>2026-07-22T12:00:20Z</time></trkpt>
  <trkpt lat="40.481460" lon="-79.760000"><ele>250</ele><time>2026-07-22T12:00:25Z</time></trkpt>
  <trkpt lat="40.481752" lon="-79.760000"><ele>252</ele><time>2026-07-22T12:00:30Z</time></trkpt>
  <trkpt lat="40.482044" lon="-79.760000"><ele>254</ele><time>2026-07-22T12:00:35Z</time></trkpt>
  <trkpt lat="40.482336" lon="-79.760000"><ele>256</ele><time>2026-07-22T12:00:40Z</time></trkpt>
  <trkpt lat="40.482628" lon="-79.760000"><ele>258</ele><time>2026-07-22T12:00:45Z</time></trkpt>
  <trkpt lat="40.482920" lon="-79.760000"><ele>260</ele><time>2026-07-22T12:00:50Z</time></trkpt>
  <trkpt lat="40.483212" lon="-79.760000"><ele>262</ele><time>2026-07-22T12:00:55Z</time></trkpt>
  <trkpt lat="40.483504" lon="-79.760000"><ele>264</ele><time>2026-07-22T12:01:00Z</time></trkpt>
  <trkpt lat="40.483796" lon="-79.760000"><ele>266</ele><time>2026-07-22T12:01:05Z</time></trkpt>
  <trkpt lat="40.484088" lon="-79.760000"><ele>268</ele><time>2026-07-22T12:01:10Z</time></trkpt>
  <trkpt lat="40.484380" lon="-79.760000"><ele>270</ele><time>2026-07-22T12:01:15Z</time></trkpt>
  <trkpt lat="40.484672" lon="-79.760000"><ele>272</ele><time>2026-07-22T12:01:20Z</time></trkpt>
  <trkpt lat="40.484964" lon="-79.760000"><ele>274</ele><time>2026-07-22T12:01:25Z</time></trkpt>
  <trkpt lat="40.485256" lon="-79.760000"><ele>276</ele><time>2026-07-22T12:01:30Z</time></trkpt>
  <trkpt lat="40.485548" lon="-79.760000"><ele>278</ele><time>2026-07-22T12:01:35Z</time></trkpt>
  <trkpt lat="40.485840" lon="-79.760000"><ele>280</ele><time>2026-07-22T12:01:40Z</time></trkpt>
  <trkpt lat="40.486132" lon="-79.760000"><ele>282</ele><time>2026-07-22T12:01:45Z</time></trkpt>
  <trkpt lat="40.486424" lon="-79.760000"><ele>284</ele><time>2026-07-22T12:01:50Z</time></trkpt>
  <trkpt lat="40.486716" lon="-79.760000"><ele>286</ele><time>2026-07-22T12:01:55Z</time></trkpt>
  <trkpt lat="40.487008" lon="-79.760000"><ele>288</ele><time>2026-07-22T12:02:00Z</time></trkpt>
  <trkpt lat="40.487300" lon="-79.760000"><ele>290</ele><time>2026-07-22T12:02:05Z</time></trkpt>
  <trkpt lat="40.487592" lon="-79.760000"><ele>292</ele><time>2026-07-22T12:02:10Z</time></trkpt>
  <trkpt lat="40.487884" lon="-79.760000"><ele>294</ele><time>2026-07-22T12:02:15Z</time></trkpt>
  <trkpt lat="40.488176" lon="-79.760000"><ele>296</ele><time>2026-07-22T12:02:20Z</time></trkpt>
  <trkpt lat="40.488468" lon="-79.760000"><ele>298</ele><time>2026-07-22T12:02:25Z</time></trkpt>
  <trkpt lat="40.488760" lon="-79.760000"><ele>298</ele><time>2026-07-22T12:02:30Z</time></trkpt>
  <trkpt lat="40.489052" lon="-79.760000"><ele>298</ele><time>2026-07-22T12:02:35Z</time></trkpt>
  <trkpt lat="40.489344" lon="-79.760000"><ele>298</ele><time>2026-07-22T12:02:40Z</time></trkpt>
  <trkpt lat="40.489636" lon="-79.760000"><ele>298</ele><time>2026-07-22T12:02:45Z</time></trkpt>
  <trkpt lat="40.489928" lon="-79.760000"><ele>298</ele><time>2026-07-22T12:02:50Z</time></trkpt>
  <trkpt lat="40.490220" lon="-79.760000"><ele>298</ele><time>2026-07-22T12:02:55Z</time></trkpt>
  <trkpt lat="40.490512" lon="-79.760000"><ele>298</ele><time>2026-07-22T12:03:00Z</time></trkpt>
  <trkpt lat="40.490804" lon="-79.760000"><ele>298</ele><time>2026-07-22T12:03:05Z</time></trkpt>
  <trkpt lat="40.491096" lon="-79.760000"><ele>298</ele><time>2026-07-22T12:03:10Z</time></trkpt>
  <trkpt lat="40.491388" lon="-79.760000"><ele>298</ele><time>2026-07-22T12:03:15Z</time></trkpt>
  <trkpt lat="40.491680" lon="-79.760000"><ele>298</ele><time>2026-07-22T12:03:20Z</time></trkpt>
  <trkpt lat="40.491972" lon="-79.760000"><ele>298</ele><time>2026-07-22T12:03:25Z</time></trkpt>
  <trkpt lat="40.492264" lon="-79.760000"><ele>298</ele><time>2026-07-22T12:03:30Z</time></trkpt>
  <trkpt lat="40.492556" lon="-79.760000"><ele>298</ele><time>2026-07-22T12:03:35Z</time></trkpt>
  <trkpt lat="40.492848" lon="-79.760000"><ele>298</ele><time>2026-07-22T12:03:40Z</time></trkpt>
  <trkpt lat="40.492848" lon="-79.759616"><ele>298</ele><time>2026-07-22T12:03:45Z</time></trkpt>
  <trkpt lat="40.492848" lon="-79.759232"><ele>298</ele><time>2026-07-22T12:03:50Z</time></trkpt>
  <trkpt lat="40.492848" lon="-79.758848"><ele>298</ele><time>2026-07-22T12:03:55Z</time></trkpt>
  <trkpt lat="40.492848" lon="-79.758464"><ele>298</ele><time>2026-07-22T12:04:00Z</time></trkpt>
  <trkpt lat="40.492848" lon="-79.758080"><ele>298</ele><time>2026-07-22T12:04:05Z</time></trkpt>
  <trkpt lat="40.492848" lon="-79.757696"><ele>298</ele><time>2026-07-22T12:04:10Z</time></trkpt>
  <trkpt lat="40.492848" lon="-79.757312"><ele>298</ele><time>2026-07-22T12:04:15Z</time></trkpt>
  <trkpt lat="40.492848" lon="-79.756928"><ele>298</ele><time>2026-07-22T12:04:20Z</time></trkpt>
  <trkpt lat="40.492848" lon="-79.756544"><ele>298</ele><time>2026-07-22T12:04:25Z</time></trkpt>
  <trkpt lat="40.492848" lon="-79.756160"><ele>298</ele><time>2026-07-22T12:04:30Z</time></trkpt>
  <trkpt lat="40.492848" lon="-79.755776"><ele>298</ele><time>2026-07-22T12:04:35Z</time></trkpt>
  <trkpt lat="40.492848" lon="-79.755392"><ele>298</ele><time>2026-07-22T12:04:40Z</time></trkpt>
  <trkpt lat="40.492848" lon="-79.755008"><ele>298</ele><time>2026-07-22T12:04:45Z</time></trkpt>
  <trkpt lat="40.492848" lon="-79.754624"><ele>298</ele><time>2026-07-22T12:04:50Z</time></trkpt>
  <trkpt lat="40.492848" lon="-79.754240"><ele>298</ele><time>2026-07-22T12:04:55Z</time></trkpt>
  <trkpt lat="40.492848" lon="-79.753856"><ele>296</ele><time>2026-07-22T12:05:00Z</time></trkpt>
  <trkpt lat="40.492848" lon="-79.753472"><ele>294</ele><time>2026-07-22T12:05:05Z</time></trkpt>
  <trkpt lat="40.492848" lon="-79.753088"><ele>292</ele><time>2026-07-22T12:05:10Z</time></trkpt>
  <trkpt lat="40.492848" lon="-79.752704"><ele>290</ele><time>2026-07-22T12:05:15Z</time></trkpt>
  <trkpt lat="40.492848" lon="-79.752320"><ele>288</ele><time>2026-07-22T12:05:20Z</time></trkpt>
  <trkpt lat="40.492848" lon="-79.751936"><ele>286</ele><time>2026-07-22T12:05:25Z</time></trkpt>
  <trkpt lat="40.492848" lon="-79.751552"><ele>284</ele><time>2026-07-22T12:05:30Z</time></trkpt>
  <trkpt lat="40.492848" lon="-79.751168"><ele>282</ele><time>2026-07-22T12:05:35Z</time></trkpt>
  <trkpt lat="40.492848" lon="-79.750784"><ele>280</ele><time>2026-07-22T12:05:40Z</time></trkpt>
  <trkpt lat="40.492848" lon="-79.750400"><ele>278</ele><time>2026-07-22T12:05:45Z</time></trkpt>
  <trkpt lat="40.492848" lon="-79.750016"><ele>276</ele><time>2026-07-22T12:05:50Z</time></trkpt>
  <trkpt lat="40.492848" lon="-79.749632"><ele>274</ele><time>2026-07-22T12:05:55Z</time></trkpt>
  <trkpt lat="40.492848" lon="-79.749248"><ele>272</ele><time>2026-07-22T12:06:00Z</time></trkpt>
  <trkpt lat="40.492848" lon="-79.748864"><ele>270</ele><time>2026-07-22T12:06:05Z</time></trkpt>
  <trkpt lat="40.492848" lon="-79.748480"><ele>268</ele><time>2026-07-22T12:06:10Z</time></trkpt>
  <trkpt lat="40.492848" lon="-79.748096"><ele>266</ele><time>2026-07-22T12:06:15Z</time></trkpt>
  <trkpt lat="40.492848" lon="-79.747712"><ele>264</ele><time>2026-07-22T12:06:20Z</time></trkpt>
  <trkpt lat="40.492848" lon="-79.747328"><ele>262</ele><time>2026-07-22T12:06:25Z</time></trkpt>
  <trkpt lat="40.492848" lon="-79.746944"><ele>260</ele><time>2026-07-22T12:06:30Z</time></trkpt>
  <trkpt lat="40.492848" lon="-79.746560"><ele>258</ele><time>2026-07-22T12:06:35Z</time></trkpt>
  <trkpt lat="40.492848" lon="-79.746176"><ele>256</ele><time>2026-07-22T12:06:40Z</time></trkpt>
  <trkpt lat="40.492848" lon="-79.745792"><ele>254</ele><time>2026-07-22T12:06:45Z</time></trkpt>
  <trkpt lat="40.492848" lon="-79.745408"><ele>252</ele><time>2026-07-22T12:06:50Z</time></trkpt>
  <trkpt lat="40.492848" lon="-79.745024"><ele>250</ele><time>2026-07-22T12:06:55Z</time></trkpt>
  <trkpt lat="40.492848" lon="-79.744640"><ele>248</ele><time>2026-07-22T12:07:00Z</time></trkpt>
  <trkpt lat="40.492848" lon="-79.744256"><ele>246</ele><time>2026-07-22T12:07:05Z</time></trkpt>
  <trkpt lat="40.492848" lon="-79.743872"><ele>244</ele><time>2026-07-22T12:07:10Z</time></trkpt>
  <trkpt lat="40.492848" lon="-79.743488"><ele>242</ele><time>2026-07-22T12:07:15Z</time></trkpt>
  <trkpt lat="40.492848" lon="-79.743104"><ele>240</ele><time>2026-07-22T12:07:20Z</time></trkpt>
  <trkpt lat="40.492848" lon="-79.742720"><ele>238</ele><time>2026-07-22T12:07:25Z</time></trkpt>
</trkseg></trk></gpx>
